STARLINK-2144           
1 47734U 21017N   26068.68682847  .00016191  00000+0  55727-3 0  9993
2 47734  53.1608 203.9031 0001306  77.0045 283.1101 15.30217954277864
LYNK TOWER 3            
1 55046U 23001AP  26068.68752747  .00013886  00000+0  42324-3 0  9997
2 55046  97.3321 129.5399 0009859 112.8813 247.3472 15.34026505176644
